{
    "links": {
        "self": "http://www.neowsapp.com/rest/v1/neo/3789678?api_key=iIulBulltgU6a56xZRHN4H3l9WmuAYTsLGpBGhQ2"
    },
    "id": "3789678",
    "neo_reference_id": "3789678",
    "name": "(2017 WF15)",
    "designation": "2017 WF15",
    "nasa_jpl_url": "http://ssd.jpl.nasa.gov/sbdb.cgi?sstr=3789678",
    "absolute_magnitude_h": 26.5,
    "estimated_diameter": {
        "kilometers": {
            "estimated_diameter_min": 0.0133215567,
            "estimated_diameter_max": 0.0297879063
        },
        "meters": {
            "estimated_diameter_min": 13.3215566698,
            "estimated_diameter_max": 29.7879062798
        },
        "miles": {
            "estimated_diameter_min": 0.008277629,
            "estimated_diameter_max": 0.0185093411
        },
        "feet": {
            "estimated_diameter_min": 43.7058959846,
            "estimated_diameter_max": 97.7293544391
        }
    },
    "is_potentially_hazardous_asteroid": false,
    "close_approach_data": [
        {
            "close_approach_date": "1925-11-25",
            "close_approach_date_full": "1925-Nov-25 16:40",
            "epoch_date_close_approach": -1391671200000,
            "relative_velocity": {
                "kilometers_per_second": "9.8117582494",
                "kilometers_per_hour": "35322.3296979331",
                "miles_per_hour": "21947.9220281407"
            },
            "miss_distance": {
                "astronomical": "0.0490574004",
                "lunar": "19.0833287556",
                "kilometers": "7338882.607577148",
                "miles": "4560170.1944467224"
            },
            "orbiting_body": "Earth"
        },
        {
            "close_approach_date": "1933-12-22",
            "close_approach_date_full": "1933-Dec-22 09:22",
            "epoch_date_close_approach": -1136903880000,
            "relative_velocity": {
                "kilometers_per_second": "15.7049581357",
                "kilometers_per_hour": "56537.8492884296",
                "miles_per_hour": "35130.4208536912"
            },
            "miss_distance": {
                "astronomical": "0.463829156",
                "lunar": "180.429541684",
                "kilometers": "69387853.78149772",
                "miles": "43115613.042279736"
            },
            "orbiting_body": "Earth"
        },
        {
            "close_approach_date": "2009-11-03",
            "close_approach_date_full": "2009-Nov-03 10:32",
            "epoch_date_close_approach": 1257244320000,
            "relative_velocity": {
                "kilometers_per_second": "17.7743535802",
                "kilometers_per_hour": "63987.6728886433",
                "miles_per_hour": "39759.4515235017"
            },
            "miss_distance": {
                "astronomical": "0.4542076711",
                "lunar": "176.6867840579",
                "kilometers": "67948500.134220557",
                "miles": "42221240.1584834066"
            },
            "orbiting_body": "Earth"
        },
        {
            "close_approach_date": "2017-11-27",
            "close_approach_date_full": "2017-Nov-27 18:37",
            "epoch_date_close_approach": 1511807820000,
            "relative_velocity": {
                "kilometers_per_second": "9.6482806696",
                "kilometers_per_hour": "34733.8104105368",
                "miles_per_hour": "21582.2390298138"
            },
            "miss_distance": {
                "astronomical": "0.0513628785",
                "lunar": "19.9801597365",
                "kilometers": "7683777.220668795",
                "miles": "4774477.769447571"
            },
            "orbiting_body": "Earth"
        },
        {
            "close_approach_date": "2114-11-27",
            "close_approach_date_full": "2114-Nov-27 05:45",
            "epoch_date_close_approach": 4572740700000,
            "relative_velocity": {
                "kilometers_per_second": "9.8442496259",
                "kilometers_per_hour": "35439.2986534164",
                "miles_per_hour": "22020.6019882853"
            },
            "miss_distance": {
                "astronomical": "0.0509007519",
                "lunar": "19.8003924891",
                "kilometers": "7614644.065638453",
                "miles": "4731520.4188705314"
            },
            "orbiting_body": "Earth"
        }
    ],
    "orbital_data": {
        "orbit_id": "3",
        "orbit_determination_date": "2017-11-29 06:18:25",
        "first_observation_date": "2017-11-24",
        "last_observation_date": "2017-11-28",
        "data_arc_in_days": 4,
        "observations_used": 40,
        "orbit_uncertainty": "8",
        "minimum_orbit_intersection": ".0469257",
        "jupiter_tisserand_invariant": "4.731",
        "epoch_osculation": "2458082.5",
        "eccentricity": ".2554040740815035",
        "semi_major_axis": "1.376648505396225",
        "inclination": "16.97701341590014",
        "ascending_node_longitude": "63.00698606607606",
        "orbital_period": "589.9742111670764",
        "perihelion_distance": "1.025046868539816",
        "perihelion_argument": "17.4184154986362",
        "aphelion_distance": "1.728250142252633",
        "perihelion_time": "2458100.442695829924",
        "mean_anomaly": "349.0514358483656",
        "mean_motion": ".6101961631303416",
        "equinox": "J2000",
        "orbit_class": {
            "orbit_class_type": "AMO",
            "orbit_class_description": "Near-Earth asteroid orbits similar to that of 1221 Amor",
            "orbit_class_range": "1.017 AU < q (perihelion) < 1.3 AU"
        }
    },
    "is_sentry_object": false
}